[{"OBJECT_NAME":"STARLINK-30759","OBJECT_ID":"2023-162E","EPOCH":"2026-03-09T22:00:01.999584","MEAN_MOTION":15.26747444,"ECCENTRICITY":0.00010361,"INCLINATION":42.9999,"RA_OF_ASC_NODE":130.6686,"ARG_OF_PERICENTER":256.3541,"MEAN_ANOMALY":266.1545,"EPHEMERIS_TYPE":0,"CLASSIFICATION_TYPE":"U","NORAD_CAT_ID":58122,"ELEMENT_SET_NO":999,"REV_AT_EPOCH":578,"BSTAR":-0.00049685322,"MEAN_MOTION_DOT":-0.00013565,"MEAN_MOTION_DDOT":0},{"OBJECT_NAME":"FLOCK 4G-27","OBJECT_ID":"2025-009AJ","EPOCH":"2026-03-09T18:05:51.175392","MEAN_MOTION":15.27199247,"ECCENTRICITY":7.564e-5,"INCLINATION":97.3976,"RA_OF_ASC_NODE":150.8631,"ARG_OF_PERICENTER":322.4974,"MEAN_ANOMALY":37.6212,"EPHEMERIS_TYPE":0,"CLASSIFICATION_TYPE":"U","NORAD_CAT_ID":62641,"ELEMENT_SET_NO":999,"REV_AT_EPOCH":6371,"BSTAR":0.00047455305,"MEAN_MOTION_DOT":0.00012587,"MEAN_MOTION_DDOT":0}]
